STARLINK-1640_new
1 16173C 20057BJ  21326.10695902  .00004195  00000-0  28116-3 0  3265
2 16173  53.0515 158.2653 0001799  84.1495 168.4288 15.06382707    16
STARLINK-1640_old
1 26173C 20057BJ  21325.12138219  .00002863  00000-0  19188-3 0  3257
2 26173  53.0516 162.6899 0001775  83.6038 221.2500 15.06380910    18
